[ {"spaceTrack": {"CCSDS_OMM_VERS": "2.0", "COMMENT": "GENERATED VIA SPACE-TRACK.ORG API", "CREATION_DATE": "2020-08-23 22:36:09", "ORIGINATOR": "18 SPCS", "OBJECT_NAME": "STARLINK-75", "OBJECT_ID": "2019-029BD", "CENTER_NAME": "EARTH", "REF_FRAME": "TEME", "TIME_SYSTEM": "UTC", "MEAN_ELEMENT_THEORY": "SGP4", "EPOCH": "2020-08-23 22:00:00.999936", "MEAN_MOTION": 15.69964175, "ECCENTRICITY": 0.0009207, "INCLINATION": 53.0051, "RA_OF_ASC_NODE": 193.0811, "ARG_OF_PERICENTER": 104.647, "MEAN_ANOMALY": 264.4945, "EPHEMERIS_TYPE": 0, "CLASSIFICATION_TYPE": "U", "NORAD_CAT_ID": 44286, "ELEMENT_SET_NO": 999, "REV_AT_EPOCH": 7136, "BSTAR": 0.00041508, "MEAN_MOTION_DOT": 0.00050653, "MEAN_MOTION_DDOT": 0, "SEMIMAJOR_AXIS": 6737.136, "PERIOD": 91.721, "APOAPSIS": 365.204, "PERIAPSIS": 352.798, "OBJECT_TYPE": "PAYLOAD", "RCS_SIZE": "LARGE", "COUNTRY_CODE": "US", "LAUNCH_DATE": "2019-05-24", "SITE": "AFETR", "DECAY_DATE": null, "DECAYED": 0, "FILE": 2807256, "GP_ID": 159986282, "TLE_LINE0": "0 STARLINK-75", "TLE_LINE1": "1 44286U 19029BD  20236.91667824  .00050653  00000-0  41508-3 0  9991", "TLE_LINE2": "2 44286  53.0051 193.0811 0009207 104.6470 264.4945 15.69964175 71367"}, "version": "v0.9", "launch": "5eb87d30ffd86e000604b378", "longitude": -119.79403326831115, "latitude": 17.835094570458736, "height_km": 358.46471949790066, "velocity_kms": 7.697428265517727, "id": "5eed7714096e59000698563e"}, {"spaceTrack": {"CCSDS_OMM_VERS": "2.0", "COMMENT": "GENERATED VIA SPACE-TRACK.ORG API", "CREATION_DATE": "2020-08-23 14:36:09", "ORIGINATOR": "18 SPCS", "OBJECT_NAME": "STARLINK-70", "OBJECT_ID": "2019-029AY", "CENTER_NAME": "EARTH", "REF_FRAME": "TEME", "TIME_SYSTEM": "UTC", "MEAN_ELEMENT_THEORY": "SGP4", "EPOCH": "2020-08-23 14:00:01.999872", "MEAN_MOTION": 15.32717015, "ECCENTRICITY": 0.0001339, "INCLINATION": 52.9976, "RA_OF_ASC_NODE": 253.2364, "ARG_OF_PERICENTER": 59.8181, "MEAN_ANOMALY": 97.7386, "EPHEMERIS_TYPE": 0, "CLASSIFICATION_TYPE": "U", "NORAD_CAT_ID": 44281, "ELEMENT_SET_NO": 999, "REV_AT_EPOCH": 6937, "BSTAR": 0.00024295, "MEAN_MOTION_DOT": 7.422e-05, "MEAN_MOTION_DDOT": 0, "SEMIMAJOR_AXIS": 6845.847, "PERIOD": 93.95, "APOAPSIS": 468.628, "PERIAPSIS": 466.795, "OBJECT_TYPE": "PAYLOAD", "RCS_SIZE": "LARGE", "COUNTRY_CODE": "US", "LAUNCH_DATE": "2019-05-24", "SITE": "AFETR", "DECAY_DATE": null, "DECAYED": 0, "FILE": 2807035, "GP_ID": 159939874, "TLE_LINE0": "0 STARLINK-70", "TLE_LINE1": "1 44281U 19029AY  20236.58335648  .00007422  00000-0  24295-3 0  9995", "TLE_LINE2": "2 44281  52.9976 253.2364 0001339  59.8181  97.7386 15.32717015 69379"}, "version": "v0.9", "launch": "5eb87d30ffd86e000604b378", "longitude": 118.86330285494267, "latitude": -17.878954906824305, "height_km": 473.2679556117173, "velocity_kms": 7.629148274232462, "id": "5eed7714096e59000698563f"}, {"spaceTrack": {"CCSDS_OMM_VERS": "2.0", "COMMENT": "GENERATED VIA SPACE-TRACK.ORG API", "CREATION_DATE": "2020-08-23 22:26:09", "ORIGINATOR": "18 SPCS", "OBJECT_NAME": "STARLINK-35", "OBJECT_ID": "2019-029AF", "CENTER_NAME": "EARTH", "REF_FRAME": "TEME", "TIME_SYSTEM": "UTC", "MEAN_ELEMENT_THEORY": "SGP4", "EPOCH": "2020-08-23 22:00:00.999936", "MEAN_MOTION": 16.08465358, "ECCENTRICITY": 0.0001935, "INCLINATION": 52.9964, "RA_OF_ASC_NODE": 236.2122, "ARG_OF_PERICENTER": 23.5447, "MEAN_ANOMALY": 164.9921, "EPHEMERIS_TYPE": 0, "CLASSIFICATION_TYPE": "U", "NORAD_CAT_ID": 44264, "ELEMENT_SET_NO": 999, "REV_AT_EPOCH": 6967, "BSTAR": 0.00011833, "MEAN_MOTION_DOT": 0.0010052, "MEAN_MOTION_DDOT": 1.6296e-05, "SEMIMAJOR_AXIS": 6629.193, "PERIOD": 89.526, "APOAPSIS": 252.341, "PERIAPSIS": 249.775, "OBJECT_TYPE": "PAYLOAD", "RCS_SIZE": "LARGE", "COUNTRY_CODE": "US", "LAUNCH_DATE": "2019-05-24", "SITE": "AFETR", "DECAY_DATE": null, "DECAYED": 0, "FILE": 2807236, "GP_ID": 159985149, "TLE_LINE0": "0 STARLINK-35", "TLE_LINE1": "1 44264U 19029AF  20236.91667824  .00100520  16296-4  11833-3 0  9992", "TLE_LINE2": "2 44264  52.9964 236.2122 0001935  23.5447 164.9921 16.08465358 69674"}, "version": "v0.9", "launch": "5eb87d30ffd86e000604b378", "longitude": 109.42342289458384, "latitude": -24.58510806023903, "height_km": 259.3980260948765, "velocity_kms": 7.750638536897664, "id": "5eed7714096e590006985640"}, {"spaceTrack": {"CCSDS_OMM_VERS": "2.0", "COMMENT": "GENERATED VIA SPACE-TRACK.ORG API", "CREATION_DATE": "2020-08-23 22:26:09", "ORIGINATOR": "18 SPCS", "OBJECT_NAME": "STARLINK-53", "OBJECT_ID": "2019-029BM", "CENTER_NAME": "EARTH", "REF_FRAME": "TEME", "TIME_SYSTEM": "UTC", "MEAN_ELEMENT_THEORY": "SGP4", "EPOCH": "2020-08-23 22:00:00.999936", "MEAN_MOTION": 15.96297257, "ECCENTRICITY": 0.000151, "INCLINATION": 52.9958, "RA_OF_ASC_NODE": 239.882, "ARG_OF_PERICENTER": 41.322, "MEAN_ANOMALY": 71.0883, "EPHEMERIS_TYPE": 0, "CLASSIFICATION_TYPE": "U", "NORAD_CAT_ID": 44294, "ELEMENT_SET_NO": 999, "REV_AT_EPOCH": 7069, "BSTAR": 0.0024651, "MEAN_MOTION_DOT": 0.01043393, "MEAN_MOTION_DDOT": 0.00051761, "SEMIMAJOR_AXIS": 6662.839, "PERIOD": 90.208, "APOAPSIS": 285.71, "PERIAPSIS": 283.698, "OBJECT_TYPE": "PAYLOAD", "RCS_SIZE": "LARGE", "COUNTRY_CODE": "US", "LAUNCH_DATE": "2019-05-24", "SITE": "AFETR", "DECAY_DATE": null, "DECAYED": 0, "FILE": 2807230, "GP_ID": 159985483, "TLE_LINE0": "0 STARLINK-53", "TLE_LINE1": "1 44294U 19029BM  20236.91667824  .01043393  51761-3  24651-2 0  9996", "TLE_LINE2": "2 44294  52.9958 239.8820 0001510  41.3220  71.0883 15.96297257 70696"}, "version": "v0.9", "launch": "5eb87d30ffd86e000604b378", "longitude": 59.47474675592559, "latitude": 36.42458539852771, "height_km": 287.19794157259093, "velocity_kms": 7.740022815304258, "id": "5eed7714096e590006985641"}, {"spaceTrack": {"CCSDS_OMM_VERS": "2.0", "COMMENT": "GENERATED VIA SPACE-TRACK.ORG API", "CREATION_DATE": "2020-08-23 22:36:09", "ORIGINATOR": "18 SPCS", "OBJECT_NAME": "STARLINK-1009", "OBJECT_ID": "2019-074C", "CENTER_NAME": "EARTH", "REF_FRAME": "TEME", "TIME_SYSTEM": "UTC", "MEAN_ELEMENT_THEORY": "SGP4", "EPOCH": "2020-08-23 22:00:00.999936", "MEAN_MOTION": 15.05574272, "ECCENTRICITY": 0.0001012, "INCLINATION": 52.9996, "RA_OF_ASC_NODE": 271.6847, "ARG_OF_PERICENTER": 107.2615, "MEAN_ANOMALY": 270.5461, "EPHEMERIS_TYPE": 0, "CLASSIFICATION_TYPE": "U", "NORAD_CAT_ID": 44715, "ELEMENT_SET_NO": 999, "REV_AT_EPOCH": 4389, "BSTAR": 0.0020459, "MEAN_MOTION_DOT": 0.0002965, "MEAN_MOTION_DDOT": 0, "SEMIMAJOR_AXIS": 6927.88, "PERIOD": 95.644, "APOAPSIS": 550.446, "PERIAPSIS": 549.044, "OBJECT_TYPE": "PAYLOAD", "RCS_SIZE": "LARGE", "COUNTRY_CODE": "US", "LAUNCH_DATE": "2019-11-11", "SITE": "AFETR", "DECAY_DATE": null, "DECAYED": 0, "FILE": 2807274, "GP_ID": 159986520, "TLE_LINE0": "0 STARLINK-1009", "TLE_LINE1": "1 44715U 19074C   20236.91667824  .00029650  00000-0  20459-2 0  9992", "TLE_LINE2": "2 44715  52.9996 271.6847 0001012 107.2615 270.5461 15.05574272 43891"}, "version": "v1.0", "launch": "5eb87d39ffd86e000604b37d", "longitude": -45.42709684092491, "latitude": 12.644328014015404, "height_km": 549.8652147612665, "velocity_kms": 7.589190137198096, "id": "5eed7714096e590006985642"}, {"spaceTrack": {"CCSDS_OMM_VERS": "2.0", "COMMENT": "GENERATED VIA SPACE-TRACK.ORG API", "CREATION_DATE": "2020-08-23 14:36:09", "ORIGINATOR": "18 SPCS", "OBJECT_NAME": "STARLINK-48", "OBJECT_ID": "2019-029BG", "CENTER_NAME": "EARTH", "REF_FRAME": "TEME", "TIME_SYSTEM": "UTC", "MEAN_ELEMENT_THEORY": "SGP4", "EPOCH": "2020-08-23 14:00:01.999872", "MEAN_MOTION": 15.20252051, "ECCENTRICITY": 0.0001298, "INCLINATION": 52.9964, "RA_OF_ASC_NODE": 235.3074, "ARG_OF_PERICENTER": 58.9466, "MEAN_ANOMALY": 287.571, "EPHEMERIS_TYPE": 0, "CLASSIFICATION_TYPE": "U", "NORAD_CAT_ID": 44289, "ELEMENT_SET_NO": 999, "REV_AT_EPOCH": 7073, "BSTAR": -0.0010763, "MEAN_MOTION_DOT": -0.00023893, "MEAN_MOTION_DDOT": 0, "SEMIMAJOR_AXIS": 6883.216, "PERIOD": 94.721, "APOAPSIS": 505.975, "PERIAPSIS": 504.188, "OBJECT_TYPE": "PAYLOAD", "RCS_SIZE": "LARGE", "COUNTRY_CODE": "US", "LAUNCH_DATE": "2019-05-24", "SITE": "AFETR", "DECAY_DATE": null, "DECAYED": 0, "FILE": 2807029, "GP_ID": 159939431, "TLE_LINE0": "0 STARLINK-48", "TLE_LINE1": "1 44289U 19029BG  20236.58335648 -.00023893  00000-0 -10763-2 0  9999", "TLE_LINE2": "2 44289  52.9964 235.3074 0001298  58.9466 287.5710 15.20252051 70736"}, "version": "v0.9", "launch": "5eb87d30ffd86e000604b378", "longitude": -84.93880066421447, "latitude": 10.624443535255445, "height_km": 504.6487215449979, "velocity_kms": 7.614286461630674, "id": "5eed7714096e590006985643"}, {"spaceTrack": {"CCSDS_OMM_VERS": "2.0", "COMMENT": "GENERATED VIA SPACE-TRACK.ORG API", "CREATION_DATE": "2020-08-23 22:26:09", "ORIGINATOR": "18 SPCS", "OBJECT_NAME": "STARLINK-81", "OBJECT_ID": "2019-029BK", "CENTER_NAME": "EARTH", "REF_FRAME": "TEME", "TIME_SYSTEM": "UTC", "MEAN_ELEMENT_THEORY": "SGP4", "EPOCH": "2020-08-23 22:00:00.999936", "MEAN_MOTION": 15.73006193, "ECCENTRICITY": 0.000207, "INCLINATION": 53.0088, "RA_OF_ASC_NODE": 241.6397, "ARG_OF_PERICENTER": 58.8366, "MEAN_ANOMALY": 165.6946, "EPHEMERIS_TYPE": 0, "CLASSIFICATION_TYPE": "U", "NORAD_CAT_ID": 44292, "ELEMENT_SET_NO": 999, "REV_AT_EPOCH": 7068, "BSTAR": 0.00037791, "MEAN_MOTION_DOT": 0.00052323, "MEAN_MOTION_DDOT": 0, "SEMIMAJOR_AXIS": 6728.447, "PERIOD": 91.544, "APOAPSIS": 351.705, "PERIAPSIS": 348.919, "OBJECT_TYPE": "PAYLOAD", "RCS_SIZE": "LARGE", "COUNTRY_CODE": "US", "LAUNCH_DATE": "2019-05-24", "SITE": "AFETR", "DECAY_DATE": null, "DECAYED": 0, "FILE": 2807230, "GP_ID": 159985496, "TLE_LINE0": "0 STARLINK-81", "TLE_LINE1": "1 44292U 19029BK  20236.91667824  .00052323  00000-0  37791-3 0  9993", "TLE_LINE2": "2 44292  53.0088 241.6397 0002070  58.8366 165.6946 15.73006193 70687"}, "version": "v0.9", "launch": "5eb87d30ffd86e000604b378", "longitude": 139.58795125673916, "latitude": -43.233694653605895, "height_km": 366.14364904400827, "velocity_kms": 7.688638749134029, "id": "5eed7714096e590006985644"}]